Name,City,Catégorie,VulcaTour-step,Vulca-tour,Link of the Logo,Location,Latitude,Longitude,Country,List of Events
Les Usines Nouvelles,Ligugé,,,,,,,,,
Les petits debrouillards Auvergne,,,05.09,VT05,https://drive.google.com/uc?id=13rTdJj7udAZbAQYXyxCRyTlVJKVsW1yv,"32 Rue du Pont Naturel, 63000 Clermont-Ferrand, ",45.78330330,3.07925680,France,
LinkFab,,,06.21,VT06,," 6 Place Clément Marot, 46000 Cahors",44.44760480,1.44307260,France,
 La Fabrique ENSAM,Montpellier,,13.53,VT13,https://drive.google.com/uc?id=10qIAn_itBD1gmD_CKECYhelL_Y_JbCx3,"179 Rue de l'Espérou, 34095 Montpellier, France",43.63648300,3.85694110,France,
Labsud,Montpellier,,"13.01,10.20,06.18,04.13","VT04,VT06,VT10,VT13",https://drive.google.com/uc?id=1k4q7WWSAw_yK3iCvJJqABqQw0mC-ibuT,"120 Allée John Napier, 34000 Montpellier, France",43.61513810,3.91044190,France,
8 Fablab,Crest,,01.04,"VT01,VT06",https://drive.google.com/uc?id=1PQyoPtZbZPvQWr1VMAVvL7l62Xk0npaw,"Rue Courre Commere, 26400 Crest, France",44.72823480,5.02349550,France,
Agrilab,Troissereux,,09.54,VT02,https://drive.google.com/uc?id=1O-R9cN3UU7xpY5N3vGswjAmC6a3jzzYc,"Lieu dit, 60112 Troissereux, France",49.47906700,2.04465400,France,
Albilab,Albi,,02.18,VT02,https://drive.google.com/uc?id=1KOx4nijOFhHGzTcxVE29xqgj_ddMU0qx,"8 Rue Pierre gilles de Gennes, 81000 Albi, France",43.92038600,2.18171740,France,
APEDEC Fablab Mozinor,Montreuil,,05.07,VT05,https://drive.google.com/uc?id=10bkrYL-rreWmLNUSV90J7xNB4gQ4f2Cf,"Montreuil, 2 à 20 avenue Allende, MOZINOR, Montreuil , 93106, France",48.86844850,2.45677290,France,
POP LAB ,Montreuil,,05.06,VT05,https://drive.google.com/uc?id=1tJ2uw9wPwemankH9EQ_ZCJaJJM-fyqrf,"9 Rue Dombasle, 93100 Montreuil, France",48.86422360,2.44959400,France,
Articlect,Toulouse,,03.25,"VT10,VT06,VT03",https://drive.google.com/uc?id=10KKA2RvYfiPBCg9nO7dVLbmrFrX0mccV,"10 Rue Tripière, 31000 Toulouse, France",43.60174060,1.44294810,France,
Atallier Fablab Moulins,Moulins,,05.10,"VT01,VT02,VT03,VT04,VT05,VT06,VT07,VT08,VT09,VT10,VT11,VT12,VT13",https://drive.google.com/uc?id=1guYy5XSr26LbT7cbw6uzo-Bjif3qP5VT,"40 Cours de Bercy, 03000 Moulins, France",46.56993000,3.32734970,France,
Avilab,Avignon,,06.17,VT06,https://drive.google.com/uc?id=15JWEEiYfPt0fmpfbhFqTM6SFX4fFGFpZ,"14 Ter Impasse Lescure, 84000 Avignon",43.93447340,4.80193440,France,
Beta Machine,Chartres,,09.55,VT09,https://drive.google.com/uc?id=1qay6wWhhLm-QUHqLREiVYZBg0Dj_Duf6,"15 rue Victor Gilbert
28000 Chartres",48.44107840,1.49315610,France,
Chantier Libre,Saint-Cyr-de-Favières,,15.17,VT15,https://drive.google.com/uc?id=1n6IJB_5D7J4K-qcVTMXNZKiKlyZCgjbg,"Place de la Gare, 42123 Saint-Cyr-de-Favières",45.97419880,4.13139780,France,
Club Modélisme Stéphanois,Saint esteve,,13.06,VT13,https://drive.google.com/uc?id=1fgCeAh2ecLi0DG5OEPfolTussjmWXAjR,"9 Rue du Ribéral, Saint-Estève, France",42.71905970,2.84685790,France,
Convergence 26,Montbelliard,,06.16,VT06,https://drive.google.com/uc?id=16oXbvIFw3DRFIhuM64n7t3Tl3g54inVO,"2 Place Léopold Blanc Anciennement, place du chapeau rouge, 26200 Montélimar",44.55733390,4.75250880,France,
Fab Lab Château-Thierry,Château-Thierry,,"08.43,10.01","VT08,VT10",https://drive.google.com/uc?id=1AiKS4tQDum371h6df1lvgNVhz7oC2-PJ,"53 Rue Paul Doucet, 02400 Château-Thierry, France",49.04089920,3.39949880,France,
Fab Lab L'atelier,Bar Sur Seine,,15.4,VT15,https://drive.google.com/uc?id=1PGiWKpwBhuYphKgwJQgUEQn7p8q1SEPy,"145 Grande Rue de la Résistance, 10110 Bar-sur-Seine, France",48.11416420,4.37326300,France,
Fablab Carmes,Pertuis,,10.16,VT10,https://drive.google.com/uc?id=1-LLjgKc7Tu6sBO8gWDS8JuG86LVFCtSC,"D943 Avenue du 8 Mai, 84160 Lourmarin, France",43.76647100,5.36123150,France,
FabLab Made-In-Iki,"Commenailles, France",,07.48,VT07,https://drive.google.com/uc?id=14h_dnlK-nZ6qsGaLE3NgzExhYSkNASkd,"5 Place du Général Michelin, 39140 Commenailles",46.80290500,5.45185400,France,
Fablab Nîme,Nîmes,,13.52,VT13,https://drive.google.com/uc?id=1vbQ8m85J1S9z2k0mWkCebCV-h0BKTrod,"69 Rue Georges Besse, 30000 Nîmes, France",43.82114670,4.36859750,France,
Fablab Pau (MIPS),Pau,,13.48,VT13,https://drive.google.com/uc?id=1R4GctAo49Sk2pqAH6G5KXqzDYphi4GS5,"4 Rue Despourrins, 64000 Pau, France",43.29918930,-0.36665200,France,
Maillol Fablab,Perpignan,,13.04,VT13,https://drive.google.com/uc?id=1fTyvkwUhixz0y990dXOe_6nYYFXqCQB8,"73 Avenue Pau Casals, 66000 Perpignan, France",42.71736680,2.88611130,France,
Fablab Sevigné,Perpignan,,13.05,VT13,https://drive.google.com/uc?id=1UpLmQwin0h16EJtjE6aOVTC5_4AHssLA,"21 Avenue Fernand de Chefdebien, 66000 Perpignan",42.68814780,2.88585420,France,
FabLac,Anthy-Sur-Leman,,07.45,VT07,https://drive.google.com/uc?id=1bmGT_WErD6q6BeFGpS9zWhbWlGcJ5FTA,"2 Place de l'Église, 74200 Anthy-sur-Léman, France",46.35566960,6.42624380,France,
FabNLab,Clamecy,,01.02,VT01,https://drive.google.com/uc?id=1gD93jDvmFUwza8Fya3LAFAi98QvehUr6,"12 Rue de Druyes, 58500 Clamecy, France",47.46131220,3.51514220,France,
Fabulis, Sarreguemines,,03.03,VT03,https://drive.google.com/uc?id=1UfSfyzu2qGw0gQ3wyM2hTQSIS0a2rXPY,"60 Rue du Maréchal Foch, 57200 Sarreguemines, France",49.11593560,7.07942270,France,
Le petit fablab de paris,Paris,,06.27,VT06,https://drive.google.com/uc?id=14ru_xWjHwz06mXuL3P5pxPJ0ajteqarr,"86 Avenue Philippe Auguste, 75011 Paris",48.85516070,2.39201830,France,
Faclab,Paris,,06.23,VT06,https://drive.google.com/uc?id=1tL3J3FguXi9_sfihjcoVsSKdkErqQKXI,"Avenue Marcel Paul, 92230 Gennevilliers",48.94111550,2.30343030,France,
La Paillasse,Paris,,06.26,VT06,,"226 Rue Saint-Denis, 75002 Paris",48.86846060,2.35219180,France,
MakerLab CRI Paris,Paris,,08.44,VT08,https://drive.google.com/uc?id=1fXLd7X1OqzHQTVzqujwnjZH2e_AjXTIa,Rue Charles V - Paris,48.85300690,2.36261740,France,
Woma,Paris,,02.01,VT02,https://drive.google.com/uc?id=1__MVAIE6Mid8l2tErxjbgOe_IUdDRmXm,"15bis Rue Léon Giraud, 75019 Paris, France",48.88785360,2.38275090,France,
French Maker,Besançon,,"11.01,02.02","VT11,VT02",https://drive.google.com/uc?id=1TYjwfgJG5VVVjvmKC2yyAYF7fMt7AR8S,"17 Rue Xavier Marmier, 25000 Besançon, France
",47.24201360,6.00700630,France,
FunLab,Tours,,05.08,VT05,https://drive.google.com/uc?id=1-XKVJ9ib3jdExPwTgDt7hsPJjbnpNkz0,"49 Boulevard Preuilly, 37000 Tours, France",47.39304090,0.66861930,France,
Generateur 9,Lyon,,15.05,VT15,https://drive.google.com/uc?id=15iXMsQ6LSWmq-2UbKJFYUZtNptkAPW-4,"39 avenue Sidoine Apollinaire
69009 LYON",45.77234331,4.79603211,France,
Graoulab,Metz,,08.04,VT08,https://drive.google.com/uc?id=16AJgZElmhzL9RigyPVir1DpdS83X9bA5,"IUT GMP, 57000 Metz, France",49.11938410,6.16144560,France,
Iness Fablab,Narbonne,,13.51,VT13,https://drive.google.com/uc?id=1Wb4Ku2utAFA6wFwabb7Sm_MPnz98s1kh,"30 Avenue du Dr Paul Pompidor, 11100 Narbonne, France",43.18182850,2.97857140,France,
Kell Fabrik,Dijon,,03.01,VT03,https://drive.google.com/uc?id=1iUGlGG6zQEx3EBWPSrA0CCaUO8-52Dnx,"Boîte PP2, 2 Rue des Corroyeurs, 21000 Dijon, France",47.31517590,5.03175330,France,
L'etabli,Soustons,,07.02,VT07,https://drive.google.com/uc?id=1NIszoSiDQpPs30sG2XU337lF8tjugcAg,"18 Rue de Moscou, 40140 Soustons",43.74836500,-1.32451370,France,
La Bêta-Pi,Melle,,09.02,VT09,https://drive.google.com/uc?id=1gMcu5H8igp9o4xuvHVOvmXg1orY2HpSP,"5 Rue du Bourgneuf, 79500 Melle, France",46.22105990,-0.14567040,France,
La Bricothèque,Pernes-Les-Fontaines,,10.18,VT10,https://drive.google.com/uc?id=1qoG5oq6F7Fx1_UDkwYPql3oWHELdyIjl,"491 Cours Frizet, 84210 Pernes-les-Fontaines, France",44.00127970,5.05957760,France,
La Casemate,Grenoble,,15.07,VT15,https://drive.google.com/uc?id=1xjNSIxBRrsNplsdMDN1Oy_TWLMk1EPPW,"CCSTI La Casemate
2 place Saint-Laurent
38000 Grenoble",45.19762760,5.73229660,France,
La cocotte Numérique,Murat,,03.24,VT03,https://drive.google.com/uc?id=1axWHF0HyiJozDu6i8oo_ClAtGC6Uu39t," 4 Rue du Faubourg Notre Dame, 15300 Murat, France",45.11089930,2.87006240,France,
La Fabrique,Strasbourg,,11.03,VT11,https://drive.google.com/uc?id=1BMO1yVGdLc5ZL3xLvY748pGjZWLGNtdW,"91 Route des Romains, 67200 Strasbourg, France",48.57846560,7.70997930,France,
La fruitère Numérique,Louremarin,,10.17,VT10,https://drive.google.com/uc?id=1bzSsYJwNCuX5eH7onak5DFcAX-arlhMR,"D943 Avenue du 8 Mai, 84160 Lourmarin, France",43.76647100,5.36123150,France,
La Gare Numerique,Carpentras,,10.19,VT10,https://drive.google.com/uc?id=1up5VdaJ6aQin33kNpHPaYICZsijTIb2f,"41 Rue Porte de Monteux, 84200 Carpentras, France",44.05488190,5.04596670,France,
La petite fabrique de Toulon,Toulon,,01.06,VT01,https://drive.google.com/uc?id=16KZtLjbJLLLqEcWPXvA3TBNKIpsx0ypU,"22 Rue des Riaux, 83000 Toulon, France",43.12199170,5.93185950,France,
Petits debrouillards Grand Est,Maxeville,,12.01,VT12,https://drive.google.com/uc?id=1UBn-_fHsztmrzUQXlwntUE6qsj4zTVRj,"5 Avenue de Metz, 54320 Maxéville, France",48.70530260,6.16716530,France,
La Piscine / Les Petits deb,Maxeville,,08.01,VT08,https://drive.google.com/uc?id=1UBn-_fHsztmrzUQXlwntUE6qsj4zTVRj,"5 Avenue de Metz, 54320 Maxéville, France",48.70530260,6.16716530,France,
La Quincaillerie,Gueret,,"09.01,01.03","VT09,VT01",https://drive.google.com/uc?id=1BgwjRh6KkvIVoAzMv_vjALyceiOCtzam,"22 Avenue Charles de Gaulle, 23000 Guéret, France",46.17093970,1.87403760,France,
Lab Aix,Aix-en-Provence,,01.05,VT01,https://drive.google.com/uc?id=1swKXShFR8xMrO6O_yb4ZdCpxr3PiUWyp,"IUT d’Aix-en-Provence
431 Avenue Gaston Berger
13625 Aix-en-Provence cedex 1",43.51434070,5.45135530,France,
Lab du Pensio,Puy-En-Velay,,"06.25,02.21","VT06,VT02",https://drive.google.com/uc?id=1SvBa4oGlOqZ_fafFNy7j42FDS-288Mjr,"1 Rue du Pensionnat Notre Dame de France, 43000 Le Puy-en-Velay, France",45.04130630,3.87961290,France,
Lab'aux,Semur-en-Auxois,,06.28,VT06,https://drive.google.com/uc?id=1xWZyP111ujkTwmMTUH8wiea5Z5BLAbdK,"43 Rue de Vigne, 21140 Semur-en-Auxois",47.49508140,4.33510440,France,
Lab01, Ambérieu-en-Bugey,,11.47,VT11,https://drive.google.com/uc?id=1fuyiPZcxgz41r7wxvudVjNoHl6USEBDC,"46-48 Rue Gustave Noblemaire, 01500 Ambérieu-en-Bugey, France",45.95424030,5.34517900,France,
Labo Motive,Saint-Maur,,06.22,VT06,https://drive.google.com/uc?id=1KBI8sF8uHmHZT1DvyiaVQ-ggiFjzS3PI," 10 Rue de la Gare, 36250 Saint-Maur",46.80192760,1.62800120,France,
Le Prototype,Chambery,,06.14,VT06,https://drive.google.com/uc?id=1FU4lgV2c5EEq3xypD0iHIFlBM0GcHFem,"17 rue des diables bleus
73000 CHAMBÉRY",45.57394890,5.91379220,France,
Les 3 lapins,Luxeuil-Les-Bains,,"13.54,11.02","VT13,VT11",https://drive.google.com/uc?id=1GCvBX06Da1Xg1XlJFoJH-Y6rA0TycN45,"2 Rue Lacépède, Luxeuil-les-Bains, Bourgogne Franche Comté, 70300, Franc",47.81805770,6.38911840,France,
Limouzilab,Limoges,,11.01,VT11,https://drive.google.com/uc?id=14hWBMUnn6rjnmH9TiTSl3pYj0-khU2Ay,"33 Avenue de Louyat, 87100 Limoges, France",45.84751110,1.25830120,France,
NYBI FabLab,Nancy,,08.02,VT08,https://drive.google.com/uc?id=1s3KXSd6SNo2A_nwJP8Wr4cIKfP44gaRG,"49 Boulevard d'Austrasie, 54000, Nancy",48.69370830,6.20000790,France,
Lorraine Fab Living Lab,Nancy,,08.03,VT08,https://drive.google.com/uc?id=19a7_2Upvh3he4vKGYeuET_lRvSb-Jdiq,"49 Boulevard d'Austrasie, 54000 Nancy, France",48.69370830,6.20000790,France,
Luz'in,La tour du pain,,15.6,VT15,https://drive.google.com/uc?id=14FMGS275LeXG5D-uKtY342qlo4OLfjfU,"3, rue des Muriers – ZA de Rhodes
38110 LA TOUR DU PIN",45.56384436,5.43582025,France,
Machinerie d'Alex,Saint-Eloy-Les-Mines,,01.08,VT01,https://drive.google.com/uc?id=19-JKhaCwLrceqKzwKCJDskhLo6-BX8lZ,"3 Rue du Collège, 63700 Saint-Éloy-les-Mines, France",46.16354140,2.82378870,France,
Makeo,Dax,,07.03,VT07,https://drive.google.com/uc?id=1MfR2lWvjMa2OW9r4PmBHvWhU7_C0akfN,"1 Avenue de la Gare, 40100 Dax, France",43.72039750,-1.05195420,France,
Mars-Hack Lab FabLab,Marsac sur L'îsle,,07.01,VT07,https://drive.google.com/uc?id=1kL5lvU7bhgB9iRiVQ3Fa33aKqHd4tRxo,"95 Route de Bordeaux, 24430 Marsac-sur-l'Isle, France",45.18383270,0.65609490,France,
Numérifab,Bras sur Meuse,,08.42,VT08,https://drive.google.com/uc?id=1wA3JKDv-GRbOvQ90sbt1yfVe4KdPCaXZ,"5 Place de la Mairie, 55100 Bras-sur-Meuse, France",49.21005490,5.37712610,France,
Pangloss Labs,Ferney-Voltaire,,07.47,VT07,https://drive.google.com/uc?id=1Y3sQHPHLVYHB3iTu6KSQKHDGFAJnVjqX,"12bis Residence Joseph Boisson, Rue de Gex, 01210 Ferney-Voltaire, France",46.25952470,6.10775120,France,
PING,Nantes,,02.02,VT02,https://drive.google.com/uc?id=1yCefIRhdjcxT0N9Bw6PJlXcbpA_D8mEg,"38 Rue du Breil, 44100 Nantes, France",47.22946360,-1.58445550,France,
Repair Café Perpignan,Toulouges,,13.08,VT13,,"Rue de la Grangerie, 66350 Toulouges, France",42.67142810,2.83130860,France,
Sapi Tiers Lieu (Acilab - Atelier chantier incertion),Limoux,,13.03,VT13,https://drive.google.com/uc?id=1yhWi_KY6j_r0QnlgVSOmJg0L_E0rfCTQ,"7 Rue du Cougaing, 11300 Limoux, France",43.05553310,2.21264660,France,
Sigmake,Clermont-Ferrand,,06.24,VT06,https://drive.google.com/uc?id=1EoRpCGNFicpyfBMFkLdQT6lQql_JsVAH,"27 Rue Roche Genès, 63170 Aubière, France",45.75747250,3.11296210,France,
Squaregolab,Soler,,"13.07,07.39","VT07,VT13",https://drive.google.com/uc?id=1RTDwQkznKUR60Kfc4QOajQ2jW6GySOTq,,,,France,
Technistub,Mulhouse,,"15.16,12.43,10.17","VT15,VT12,VT10",https://drive.google.com/uc?id=1iQZjV6Dfi_X0YQPr4Un-sNw8JA3GbEzu,"2 Rue des Flandres, 68100 Mulhouse, France",47.76188330,7.35941570,France,
Tiers Lieu en Bigorre,Bagnère-de-Bigorre,,13.49,VT13,https://drive.google.com/uc?id=1_P2j-qnG17BvaPoXd-IGQcb_JXITLdXg,"33 Avenue du Général Leclerc, 65200 Bagnères-de-Bigorre, France",43.07180400,0.14371600,France,
Web 5,Beziers,,"13.02,06.19","VT13,VT06",https://drive.google.com/uc?id=1bYFnr7ewqQ1-RcVXgxA2iOfjL8d0fblY,"3 Place du 14 Juillet, 34500 Béziers, France",43.34657910,3.22216260,France,
Zbis,Saint Georges de Montaigu,,09.03,VT09,https://drive.google.com/uc?id=1r9LDdeWP58oX6GIdDW1Bnp91gmZPX6pt,Saint Georges de Montaigu,46.94751000,-1.29676700,France,
Les Usines Nouvelles,Ligugé,,,VT03,https://drive.google.com/file/d/1QwBQRYluVs3n7VnYP4vc-l7HTX8SHeAj/view?usp=sharing,"La filature, avenue de la plage, 86340 Ligugé",46.51543850,0.33657370,France,
1535° Creative Hub,Differdange,,02.20,"VT02,VT08",https://drive.google.com/uc?id=1le1Gk_PdAMTbWETJUKhyhQKhr1-0B0eh,"115 Rue Emile Mark, 4620 Differdange, Luxembourg",49.52210800,5.89976040,Luxembourg,
BulbZone,Luxembourg,,02.19,VT02,https://drive.google.com/uc?id=1uzxQf-3MNhbdxCkoOVaSyOCAyjpEPxgy,"120 route d'Arlon, Strassen, L-8008, LU",49.61970760,6.07767650,Luxembourg,
57North Hacklab,Aberdeen,,09.16,VT09,https://drive.google.com/uc?id=1-JOzsh_EudeLx5qbfCMAFlE1Fr1xMubJ,"Units G&H, 2 Kettock Lodge, Balgownie Dr, Aberdeen AB22 8GU, Royaume-Uni",57.17953100,-2.11038820,Scotland,
Make Aberdeen,Aberdeen,,01.07,VT01,https://drive.google.com/uc?id=15BawBGg8p50vLJq-tzjv_T5pSK3mEE7T,"17 Belmont St, Aberdeen AB10 1JR, Royaume-Uni",57.14659360,-2.10150700,Scotland,
Dundee Makerspace,Dundee,,09.17,VT09,https://drive.google.com/uc?id=1c-ZHVqZuyoWFm7pcIqRmcGgXklKYI9kw,"Dundee MakerSpace Ltd, Densfield Works, Block 4, N Isla St, Dundee DD3 7JQ, Royaume-Uni",56.47423070,-2.97201430,Scotland,
Edinburgh Hacklab,Edinburgh,,09.18,VT09,,"1 Summerhall Square, Newington, Edinburgh EH9 1PL, Royaume-Uni",55.93942170,-3.18185410,Scotland,
T-Exchange Makerspace,Findhorn,,09.15,VT09,https://drive.google.com/uc?id=1obOVcpCubE-LkSuBt3-WYCpv1CP5LtM3,"The Findhorn Village Centre, Findhorn, Forres IV36 3YR, Royaume-Uni",57.65763370,-3.60764850,Scotland,
Aalto Fablab,Helsinki,,02.11,VT02,https://drive.google.com/uc?id=1N2vTVJEg8MRt9yEOPaLecPGRPP5xydLG,"Magneettitalo, Otakaari 7, 02150 Espoo, Finlande",60.18898550,24.83326430,Finland,
Algarve FabFarm,Barão de São João,,07.15,"VT07,VT13",https://drive.google.com/uc?id=1vLy7vNBpsap3M19doVVY6fsdfiECjx-D,"Barão de São João, Portugal",37.13845970,-8.77690080,Portugal,
Associação de Informática de Castelo Branco,Castel Branco,,"13.36,07.13",VT13,https://drive.google.com/uc?id=10OVzgdMPbD5HQ6SC_X305gwzDjHVLn_J,No place yet,39.97675830,-7.44605990,Portugal,
Buihno Creative Hubs,Messejana,,13.23,"VT07,VT13",https://drive.google.com/uc?id=10PmX1SDHf08b4TbwICJ7VP9eTYFILsJx,"Rua Nova de São Brás 43, 7600-346 Messejana, Portugal",37.83114270,-8.24547730,Portugal,
EDP FabLab,Sasavem,,07.23,VT07,https://drive.google.com/uc?id=1MvvXrxqWRzBVscaBijbGw6WrFxf5tmfj,"R. Cidade de Goa 4, 2685-038 Sacavém, Portugal",38.78385440,-9.10364030,Portugal,
Fab Lab Aldeias do Xisto,"Fundao
",,"07.12,13.37","VT07,VT13",https://drive.google.com/uc?id=1PYhQwX7DzcrS3Cl0Tw1mxP4JYCNt2Vy_,"R. dos Três Lagares 60, 6230-378 ",40.13715980,-7.50116370,Portugal,
Fablab Aberto,Terra Vera,,13.28,VT13,https://drive.google.com/uc?id=1H2a_0mHDfkMQccpArcdXFLmZS1dy7eH6,"R. Serpa Pinto 3, Torres Vedras, Lisboa, 2560-661, Portugal",39.09175800,-9.25939530,Portugal,
Fablab Benfica,"Benfica
",,"13.31,07.22","VT07,VT13",https://drive.google.com/uc?id=1BuaSkjHoBNnjecsmEmtMY2MpWjc-6iyg,"Escola Superior de Educação de Lisboa, Campus de Benfica do IPL, 1549-003, Lisboa, Portugal",38.74595010,-9.19515050,Portugal,
Fablab Cascais,Cascais,,13.27,VT13,https://drive.google.com/uc?id=1gXk1ZYEiq-dz8EpCeG88sFHr0o2T9hRH,"Rua Piaget, Loja 142 – A, Adroana, 2645-626 Alcabideche",38.74631040,-9.37996410,Portugal,
Fablab Coimbra ,Coimbra,,13.38,VT13,https://drive.google.com/uc?id=1anTyPYG9K65d4UrOJJYkSXkh5aBW8Wi5,"R. Cel. Júlio Veiga Simão, 3025-307 Coimbra, Portugal",40.22811760,-8.44077890,Portugal,
FabLab FCT,Caparica,,07.24,VT07,https://drive.google.com/uc?id=1v-dAK4KQ3p6HhNBn_B0IuWbq4XP1dtpz,"Calçada de Alfazina 2, 2825-149 Caparica, Portugal",38.67325030,-9.18758480,Portugal,
FabLab Guarda,Guarda,,07.11,VT07,https://drive.google.com/uc?id=1KbhtbFzE55t3SEKbJg2iSPEzCjy3Y_-0,"Av. Dr. Francisco Sá Carneiro 50, 6300-035 Guarda, Portugal",40.53791670,-7.28428410,Portugal,
Fablab Sintra,Sintra,,13.26,VT13,https://drive.google.com/uc?id=12B4e6rEeVRw1OeOm3SWl1FpEeGIYD8B2,"Largo Padre Américo 10 Sub Cave, 2745-712 Queluz, Portugal",38.75151860,-9.28198080,Portugal,
Viva Lab,Porto,,"13.39,07.08","VT07,VT13",https://drive.google.com/uc?id=1gK8Uez44OMxSFWhmVtXYNuEdAtvOCFlZ,"R. de Pedro Hispano 407, 4100-394 Porto, Portugal",41.16201260,-8.63733760,Portugal,
Porto Design Factory,Porto,,07.10,VT07,https://drive.google.com/uc?id=1wTuYWxFiy1-vZzetsuhNjq-M-5J4HZlh,"Porto Design Factory, Rua Arquitecto Lobão Vital, 4200-374 Porto, Portugal",41.17631530,-8.60541630,Portugal,
OpoLab,Porto,,07.09,VT07,https://drive.google.com/uc?id=10lmSi1z8ZLlDlZMhEG6JjmxfaU9ndE87,"R. de Dom João IV 643, 4000-035 Porto, Portugal",41.15231090,-8.60241090,Portugal,
Fabrica Moderna,Porto,,07.19,VT07,https://drive.google.com/uc?id=1wT0S2OXt3KibUWxXr43W8bj0aQ3gBwin,"R. Pereira Henriques 24, 1950-242 Lisboa, Portugal",38.74104010,-9.10379540,Portugal,
FAZMOR,Castel Branca,,13.33,VT13,https://drive.google.com/uc?id=1_s8e2JsEEaf5qcD8_POcLjWwjWlGjraI,"Casa Branca, Montemor-o-Novo, Portugal",38.49877110,-8.15902340,Portugal,
Human That Makes,Barreiro,,13.32,VT13,https://drive.google.com/uc?id=1qv88ESdSbFeGVc9KLQXQSKJvLdaZRDeP,"R. Resistentes Anti-Fascistas 27, 2830-523 Barreiro",38.66327260,-9.05767990,Portugal,
Oficinas do Convento,Montemor-o-Novo,,13.34,VT13,https://drive.google.com/uc?id=12QulN-sn1HV0NUcsEVeE_1HzOQs-YpB6,"Convento de S. Francisco, Carreira de S. Francisco, 7050-160 Montemor-o-Novo, Portugal",38.64946490,-8.21064550,Portugal,
Oficinas Makerspace Almaderia,Almada,,"13.24,07.20","VT07,VT13",https://drive.google.com/uc?id=1mVCqKakJrTPBIk8wd_aQz16J2ncx3hX8,"R. Carvalho Serra nº38-A, 2800-044 Almada, Portugal",38.68277520,-9.15680140,Portugal,
Makers In Little Lisbon,Lisbon,,"13.25,07.17","VT07,VT13",https://drive.google.com/uc?id=1Dyr6pQUcuNogT5lln_J2h4nzP-DNIG8C,"Calçada Moinho de Vento 14B, 1150-236 Lisboa, Portugal",38.72042820,-9.14100160,Portugal,
AltLab Hackerspace,Lisbon,,07.18,"VT07,VT13",https://drive.google.com/uc?id=1fNQk1BLEZGDaiBGF_WJQJibYWp_cSJpa,"Mercado Do Forno do Tijolo, R. Maria da Fonte, 1170-221 Lisboa, Portugal",38.72246610,-9.13253550,Portugal,
Vitruvius FabLab,Lisbon,,07.21,VT07,https://drive.google.com/uc?id=1slZ_1vZM3ZiOR7iPrDrNaX3Elg4_xEZh,"Av. das Forças Armadas, Lisboa, Portugal",38.74589280,-9.15997820,Portugal,
Fablab Lisboa,Lisbon,,"13.29,07.16","VT13,VT07",https://drive.google.com/uc?id=1WqlGkaJRKoILJBTIT2aFsNCfUkpKlH1N,"Mercado Do Forno do Tijolo, R. Maria da Fonte, 1170-221 Lisboa, Portugal",38.72246610,-9.13253550,Portugal,
Arnhem Hackerspace,Arnhem,,12.05,VT12,https://drive.google.com/uc?id=1gYurly2w_rzsXgsmGBhQiW5CACsn1V9b,"Cruquiusweg 3, 6827 BL Arnhem, Pays-Bas",51.97730530,5.94039100,Netherlands,
European Ceramic work center Fablab,Oisterwijk,,12.11,VT12,https://drive.google.com/uc?id=1hNZgkAw_tr2Rn0S17NidVco6grbL4dI5,"Almystraat 10, 5061 PA Oisterwijk, Pays-Bas",51.58118230,5.18859390,Netherlands,
Fablab 013 Stichting,Tilburg,,"03.23,12.12","VT03,VT12",https://drive.google.com/uc?id=1eK_pjW6t1mHvdBl6mVdaNKFeUQL2kANP,"Hal 553 Groenstraat 139, 5021 LL Tilburg, Pays-Bas",51.54646830,5.09096780,Netherlands,
Fablab Amersfoort,Amersfoort,,03.20,VT03,https://drive.google.com/uc?id=1hZCbkgA4qPR2JyUvMLeglJGriGWa34a_,"Geldersestraat 6, 3812 PP Amersfoort",52.16265000,5.37691900,Netherlands,
Frysklab,Leeuwarden,,12.06,VT12,https://drive.google.com/uc?id=1DfGCU4I6XeCaIFZkvYr_xrgGewdIHJd5,"Zuiderkruisweg 4, 8938 AP Leeuwarden, Pays-Bas",53.19350830,5.84536500,Netherlands,
Frack Hackerspace,Leeuwarden,,12.07,VT12,https://drive.google.com/uc?id=1aIQij9sg0Mqfd4pZVikvo9OKm4yra27l,"Cornelis Trooststraat 48, 8932 BR Leeuwarden, Pays-Bas",53.19057480,5.78619300,Netherlands,
Junior IOT,Alkmaar,,12.09,VT12,https://drive.google.com/uc?id=1g18XGxkYVV-UYhpkNk-x-KB7ipoeoRAi,"Pettemerstraat 15 Achter op evenemententerrein naast Hal25, 1823 CW Alkmaar, Pays-Bas",52.63773210,4.75045610,Netherlands,
Kaasfabriek,Alkmaar,,"12.08,03.19","VT12,VT03",https://drive.google.com/uc?id=14OgZghSbGqY4W6R1-rDyHv2sqxo3l_gn,"Pettemerstraat 15, 1823 CW Alkmaar, Pays-Bas",52.63808950,4.75029260,Netherlands,
MAD emergent art center,Eindhoven,,12.04,VT12,https://drive.google.com/uc?id=1nLWBuz0v9EJm8nszxx1HOhFiFx0RRKd0,"Von Flotowlaan 1, 5653 AD Eindhoven, Pays-Bas",51.42933470,5.45764860,Netherlands,
Protospace,Utrecht,,03.16,VT03,https://drive.google.com/uc?id=147xkpQh2Yg9ZBbHPadv-ETCvYBsxPWBu,"Padualaan 99, 3584 CH Utrecht, Pays-Bas",52.08447140,5.16876640,Netherlands,
Mini Fablab,Utrecht,,03.15,VT03,https://drive.google.com/uc?id=1QgyrBLAmf6CqUQd-bOZMeq5Hd7zLwOgk,"Nobeldwarsstraat 33, 3512 EW Utrecht, Pays-Bas",52.09195060,5.12657670,Netherlands,
PlugnMake,Delft,,"12.10,03.21","VT12,VT03",https://drive.google.com/uc?id=16E5huEZ4txgA6L97Mq0HEd2QJZRpRLGZ,"Staalweg 1, 2612 KK Delft, Pays-Bas",52.01227370,4.37433810,Netherlands,
Stadslab,Roterdam,,03.22,VT03,https://drive.google.com/uc?id=1__O-jKB6JwZNgAFOtoL_zdJxytaRHi6Z,"Wijnhaven 99, 3011 WN Rotterdam, Pays-Bas",51.91742210,4.48483540,Netherlands,
WowLab,Enshede,,03.14,VT03,https://drive.google.com/uc?id=1CXPK_snhLHJwbgctWZD77m5dBSAjSMVy,"Stroinksbleekweg 4, 7523 ZL Enschede, Pays-Bas",52.23186600,6.89440900,Netherlands,
Base 48 Hackerspace,Brno,,08.29,VT08,https://drive.google.com/uc?id=1MJWpe1lETg52m3V3lLxiju1gTAv0YCFf,"Čápkova 543/48, 602 00 Brno-střed-Veveří, Tchéquie",49.20413880,16.59437920,Czech Republic,
Brno FabLab,Brno,,04.02,"VT04,VT08",https://drive.google.com/uc?id=1sS4DYVtCY1eAjqhQZMn0sKfokxudql9a,"Purkyňova 649/127, 621 00 Brno-Medlánky, Tchéquie	",49.23418740,16.57473680,Czech Republic,
Industra Lab,Brno,,"08.28,15.10","VT08,VT15",https://drive.google.com/uc?id=1c8X6pIJa37yvHc2yFP41t76Z4DUwDNdI,"Masná 9, 602 00 Brno-jih-Trnitá, Tchéquie",49.18296820,16.62704530,Czech Republic,
STROJ Lab,Brno,,08.26,VT08,https://drive.google.com/uc?id=1dxUMUwbWvmw6Bs8DG6WmiXJbqvCpXa1O,"Faculty of Mechanical Engineering,Technická 2896/2, 616 69 Brno",49.22430620,16.57653210,Czech Republic,
FutLab: Makerspace Praha,Praha,,"10.10,08.18","VT10,VT08",https://drive.google.com/uc?id=1fUPnMgVJx34_5EpQQN14jhTG4HcYXyfb,"Pod Kapličkou 3155/20, 130 00 Strašnice, Tchéquie",50.08169130,14.48056800,Czech Republic,
BRMLAB Hackerspace,Praha,,08.17,VT08,https://drive.google.com/uc?id=1i6n2-0lHL9mK0xHSay9bpRqbgUtz4Smn,"3155/20 Strašnice Prag CZ, Pod Kapličkou, 130 00 Strašnice, Tchéquie      ",50.08342780,14.47996710,Czech Republic,
Takt,Praha,,15.15,VT15,https://drive.google.com/uc?id=1Q55XJwEpW2VubONFr8grNB9IoYSBPOaU,"Jeseniova 212, 130 00 Praha 3, Tchéquie",50.09197610,14.48305590,Czech Republic,
The cave Praha,Praha,,08.16,VT08,https://drive.google.com/uc?id=198q0h8u_0p1PsPQXGdPD_piV9YP4NnPU,"J. Masaryka 150, 120 00 Vinohrady, Tchéquie",50.07256680,14.44025280,Czech Republic,
Prusa Lab,Praha,,08.15,VT08,https://drive.google.com/uc?id=1Z-fqJmK65XR0Dv2QXqM9DtCp8_VNl_Cw,"Partyzánská 188/7A, 170 00 Praha 7-Holešovice, Tchéquie",50.10905200,14.43708620,Czech Republic,
DEPO 2015 Makerspace,Plzen,,08.14,VT08,https://drive.google.com/uc?id=1R8QqOmhdu8LA9HCx7Fq95cI964PJI6qQ,"Presslova 14, 301 00 Plzeň 3-Jižní Předměstí, Tchéquie",49.73831540,13.38159650,Czech Republic,
BIERZO MAKERS,Ponferrada,,13.42,VT13,https://drive.google.com/uc?id=16loc8RsV3A-zOtKgD_teco1QgwGQoi4S,"Av. de la Libertad, 46, 24404 Ponferrada, León",42.55456500,-6.59605510,Spain,
Bricolabs,A Coruna,,13.41,VT13,https://drive.google.com/uc?id=1GMUC07Tuzl__kxftlBE1WaEkZt0wMToS ,"A, R. Ángel Rebollo, 91, 15002 A Coruña",43.37757000,-8.40659990,Spain,
Fablab Barcelona,Barcelona,,"07.34,13.11","VT07,VT13",https://drive.google.com/uc?id=1P51ktX-LBEqJocNLANrCk3FSWtfxR2IO,"Fab Lab Barcelona, Carrer de Pujades, 102, 08002 Barcelona, Spain",41.39670770,2.19431370,Spain,
Made Makerspace,Barcelona,,07.35,VT07,https://drive.google.com/uc?id=1ruU-EacoB74LVVGKJR6wtjE7PuOertot,"Carrer de la Noguera Pallaresa, 08014 Barcelona, Espagne",41.37240870,2.13936570,Spain,
Valldaura Green Fab,Barcelona,,07.37,VT07,https://drive.google.com/uc?id=1gnjHE2sn-dqh3fzhOJWCwsw2wjs11GIH,"BV-1415, Barcelona, Espagne",41.44785140,2.13492210,Spain,
FabCafé Barcelona,Barcelona,,07.33,VT07,https://drive.google.com/uc?id=10ZuWot6Nm2r-BN33lEM9TDitQ-HcdwOe,"Carrer de Bailèn, 11, 08010 Barcelona, Espagne",41.39166800,2.17707150,Spain,
Citi Lab,Barcelona,,07.36,VT07,https://drive.google.com/uc?id=1wpLnbIsa7lAWL-uGkJ3dIFinLAnE2BfY,"Plaça de Can Suris, s/n, 08940 Cornellà de Llobregat, Barcelona, Espagne",41.35995330,2.06196710,Spain,
Sokotech Barcelona,Barcelona,,07.38,VT07,https://drive.google.com/uc?id=1NUnEu-phwOqx_sPxVGWlvrQqPhNnReM3,"Carrer de Vallès i Ribot, 36, 08027 Barcelona, Espagne",41.42435040,2.18888260,Spain,
Club Robótica Granada,Granada,,13.18,VT13,https://drive.google.com/uc?id=1tFRuEuC5mNAZxyTHryBO8e8FYxoDJjT1,"Avenida de la Ciencia, 18006 Grenade, Espagne",37.16203200,-3.60660540,Spain,
Espacio Open,Bilbao,,13.47,VT13,https://drive.google.com/uc?id=1_I4nELcHsrl-KmFqrO2zwi-jmLSBvZOE,"Deustuibarra, 70A, 48014 Bilbo, Bizkaia
",43.26907870,-2.96240210,Spain,
FabLab Burgos,Burgos,,07.06,VT07,https://drive.google.com/uc?id=1z8VQohjxOp1hXTTNMoo-iP_O0fY8jmPj,"Dr. José Luis Santamaría s/n - La Estación, 09001 Burgos, Espagne",42.33449460,-3.70778250,Spain,
Fablab Cuenca,Cuenca,,"13.15,07.29","VT13,VT07",https://drive.google.com/uc?id=1EwbARvlDylFsLFe5e8zAh1Tl_SoZ0kFy,"Plaza Romero, 2, 16004 Cuenca",40.06708150,-2.13406720,Spain,
Hiriki-Labs,St. Sebastian,,07.05,VT07,https://drive.google.com/uc?id=1KCGgXAL2067wmPvtpVzo8ar9OnKmKCPW,"Plaza de las Cigarreras, 1, 20012 San Sebastián, Guipúzcoa, Espagne",43.31698700,-1.97601700,Spain,
Fablab Donastia,St. Sebastian,,07.04,VT07,https://drive.google.com/uc?id=1NliD89MuaBS_JVKR41KXtsGyhY-C7Ktx,"Plaza de Oñati, 1, 20018 Donostia, Gipuzkoa, Espagne",43.31088180,-2.01010300,Spain,
Fablab IED,Madrid,,07.26,VT07,https://drive.google.com/uc?id=1lD3RNy2InYihXfaLaAjeXpEPGkz7JnuB,"Av. de Pedro Diez, 3, 28019 Madrid, Espagne",40.39059970,-3.72950640,Spain,
MakeSpace MAdrid,Madrid,,07.28,VT07,https://drive.google.com/uc?id=1q4oS8tkO00V98AznrPEtbqMIUzHWF5iS,"Calle Arquitectura, 18, 28005 Madrid, Espagne",40.39921100,-3.70228810,Spain,
MediaLab Prado,Madrid,,07.27,VT07,https://drive.google.com/uc?id=1LpA1TtgzWqbISYCZiu0ngxFWZNO1LAyY,"Calle de la Alameda, 15, 28014 Madrid, Espagne",40.41052040,-3.69358540,Spain,
Fablab Leon,Leon,,"13.43,07.07","VT13,VT07",https://drive.google.com/uc?id=1-ThIYO-PpsUO0-LrGfQtRgrDC-Xgu_GH,"Av. San Ignacio de Loyola, 177, 24191 San Andrés del Rabanedo, León",42.61104310,-5.59782100,Spain,
Fablab Sant Cugat,Sant Cugat,,"13.10,07.32","VT13,VT07",https://drive.google.com/uc?id=1yNUpA_vF5ns-sA1zpn5RDR4ftbW6wgcA,"Avinguda de la Torre Blanca, 57, 08172 Sant Cugat del Vallès, Barcelona, Spain",41.46708630,2.09194170,Spain,
Fablab Santander,Santander,,13.46,VT13,https://drive.google.com/uc?id=17yBvOrLznkytY_-oyKPW10yJHbMl4V9k,"Calle Puente Viesgo, 39010 Santander, Cantabria",43.45877110,-3.82390320,Spain,
Sevilla Makers Society,Sevilla,,13.20,VT13,https://drive.google.com/uc?id=1NSqJqOpTPeKy01-UVcsqtSP60-1JzNHu,"Calle Alcázares, 9, 41003 Sevilla",37.39364060,-5.99070960,Spain,
Tejares 11 Espacio Creativo,Sevilla,,13.21,VT13,https://drive.google.com/uc?id=1HvJPG-IO-p39q2xAi_9-fEJXNCDtwXPY,"Calle Heliotropo, 4. Acc, 41003 Sevilla",37.39670200,-5.98881920,Spain,
Fablab Sevilla ,Sevilla,,13.19,VT13,https://drive.google.com/uc?id=11JwQ2l7MG-FLUStTutu9d4oK3hwnVgeD,"Av. de la Reina Mercedes, 2, 41012 Sevilla",37.36227400,-5.98667970,Spain,
Fablab Terassa,Terrassa,,"13.09,07.31","VT13,VT07",https://drive.google.com/uc?id=1M9ofATEp3vUUguaIZH5xiJjY1p-ybfXY,"Carrer de Colom, 1 08222 Tarrasa Barcelona",41.56409800,2.02231630,Spain,
Oceano Naranja Fab Lab,Valencia,,13.13,VT13,https://drive.google.com/uc?id=1iKVUZH_sWQ2MLKP7zvl0rqGMq-pe6_HC,"Carrer dels Botiguers, 5, 46120 Alboraia, Valencia, Spain",39.49911930,-0.33646590,Spain,
Fablab VLC,Valencia,,13.14,VT13,https://drive.google.com/uc?id=1vgC__k5gnZ9Qf11uxba6QT5Bx_R2MGX4,"Carrer dels Botiguers, 5, 46120 Alboraia, Valencia",39.49911930,-0.33646590,Spain,
Fablab Xtrene ,Alemendralejo,,"13.35,07.25","VT13,VT07",https://drive.google.com/uc?id=1E9M-7TYo0d_W_O5FLQ3Mu-WzggYyK23f,"Calle Rafael Alberti, 4, 06200 Almendralejo, Badajoz",38.67859300,-6.41949920,Spain,
Hackerspace Castellon,Castellón de la Plana,,13.12,VT13,https://drive.google.com/uc?id=1MOZu6MYdORE8iO2d6SHoCGUW7z4Uwcag,"Espaitec I - Universitat Jaume I, Avinguda de Vicent Sos Baynat, s/n, 12071 Castellón de la Plana, Castellón",39.99457110,-0.06890030,Spain,
Hacklab Almeria,Almeria,,13.16,VT13,https://drive.google.com/uc?id=12OH01cvXF5U-0PBGls649uUyEjGR_eO3,,36.84146900,-2.46412500,Spain,
Industriosa Hackerspace ,Vigo,,13.40,VT13,https://drive.google.com/uc?id=14Sh0arc4j13EAZo4Kd9ZhPCu0tM0Lysp,"Rúa de Barcelona, 13, 36203 Vigo, Pontevedra, Spain",42.22777200,-8.72177040,Spain,
Makers Asturias,Gijon,,13.44,VT13,https://drive.google.com/uc?id=1gQ2OWT6-pNTrrVFWtsPqEd6TyfC6p5Qo,"Av. Argentina, 132, 33213 Gijón, Asturias",43.53870700,-5.70472990,Spain,
Medialab Gijon,Gijon,,13.45,VT13,https://drive.google.com/uc?id=15t4PJIZiTDu8AOykxbTGdzFYb743FNah,"Plaza Campus Universitario, 92A, 33394 Bernueces, Asturias, Spain",43.52308000,-5.62524000,Spain,
Tinkerers Fablab,Castelldefel,,07.30,VT07,https://drive.google.com/uc?id=1WLTW0fYtIKuOV1TRMNCSpG41DCPDRt9T,"PMT-UPC Ed. RDIT, Esteve Terradas, 1, 08860 Castelldefels, Barcelona, Espagne",41.27591100,1.98900420,Spain,
Binary Kitchen,Regensburg,,11.06,VT11,https://drive.google.com/uc?id=16IleznzuT9Jyz4drpO2j2IloLjKVcstZ,"Walderdorffstraße, 93053 Regensburg, Allemagne",49.00964290,12.11904870,Germany,
Chaos Computer Club Frankfurt,Frankfurt,,08.11,VT08,https://drive.google.com/uc?id=1-PD4Kba1nQF09WNCv0abCjzqyCTLTFS5,"Häuser G. 2, 60487 Frankfurt am Main, Germany       ",50.12419400,8.63605200,Germany,
Cleverinside e.V,Lubbenau,,12.33,"VT08,VT12",https://drive.google.com/uc?id=1mKbZ-2vdcRD8K-VMH-GplYpjZSz3q__Z,"Dammstraße 72, 03222 Lübbenau/Spreewald, Allemagne",51.86546081,13.97471264,Germany,
Dezentrale,Dortmund,,"08.38,03.04","VT08,VT03",https://drive.google.com/uc?id=15rDvDvCBZ0_CnmiuPGUQ7PlN2HdgPhnV,"Richardstraße 18, 44137 Dortmund, Allemagne",51.51007380,7.43978270,Germany,
Makerspace Leipzig,Leipzig,,"08.33,02.15","VT08,VT02",https://drive.google.com/uc?id=1eBrW9iJWnwWv5K4suEncUEPR0CMWBT1Z,"Lindenthaler Str. 61-65, 04155 Leipzig",51.36577490,12.36616110,Germany,
Dezentrale Hackerspace,Leipzig,,08.34,VT08,https://drive.google.com/uc?id=15rDvDvCBZ0_CnmiuPGUQ7PlN2HdgPhnV,"Dreilindenstraße 19, 04177 Leipzig",51.33635000,12.33838140,Germany,
DING Fabrik,Collogne,,08.40,VT08,https://drive.google.com/uc?id=1hP98P2E9fBtReW65tsIILe-8KXxN9Z0N,"Fritz-Voigt-Straße 1, 50823 Köln, Allemagne      ",50.95375610,6.93055490,Germany,
Fablab Siegen,Siegen,,08.08,VT08,https://drive.google.com/uc?id=19iYbgTzQ3cVmIkRAAM1qMa2wWgGCOd-V,"Herrengarten 2, 57072 Siegen, Allemagne",50.87554950,8.01945370,Germany,
Hackerspace Siegen (HASI),Siegen,,08.09,VT08,https://drive.google.com/uc?id=19iYbgTzQ3cVmIkRAAM1qMa2wWgGCOd-V,"Effertsufer 104, 57072 Siegen, Allemagne",50.86890880,8.00448290,Germany,
E Lab,Siegen,,08.10,VT08,https://drive.google.com/uc?id=14ufeGLMP2mYtJ-Xrq6H4Rpz4nqq7NvkG,"Glückauf Straße, 57076 Siegen, Allemagne",50.90519540,8.02804900,Germany,
Makerspace TU Munchen,Munchen,,06.10,VT06,https://drive.google.com/uc?id=1DWGdSC2mtuGkUF3DgwcaG6OILXOZH-AD,"bei, Lichtenbergstraße 6, 85748 Garching bei München, Allemagne",48.26815120,11.66621310,Germany,
Erfindergarden,Munchen,,06.01,VT06,https://drive.google.com/uc?id=1Ivcsoud9M2SGxUjLiifuC7cV-Ow1sJv2,"Zenettistraße 11, 80337 München, Allemagne",48.12242650,11.55692500,Germany,
Experimenta Makerspace,Heilbronn,,11.04,VT11,https://drive.google.com/uc?id=1G-Q_SRw7YRzLoMYOG9WPp36HMhvtgA-G,"Kranenstraße 14, 74072 Heilbronn, Allemagne",49.14384000,9.21480000,Germany,
Fablab Chemnitz,Chemnitz,,12.36,VT12,https://drive.google.com/uc?id=1aoc5OrQ4Q_mBCfdtyqSLUZmxV2Do3Q1p,"Philippstraße 13, 09130 Chemnitz, Allemagne",50.84211140,12.93927980,Germany,
FabLab Cottbus e.V.,Cottbus,,12.32,VT12,https://drive.google.com/uc?id=1iVRn49vwjOM8ZB9zlrKxfHkivRNKJfEX,"Walther-Pauer-Straße 7, 03044 Cottbus, Allemagne",51.76903830,14.32225150,Germany,
Macherburg MS,Magdeburg,,12.18,VT12,https://drive.google.com/uc?id=1ZB5Ade1JuMO7Qim_iMAToqaEMXzIADvU,"Porsestraße 19/Gebäude 13, 39104 Magdeburg, Allemagne",52.10841540,11.63297260,Germany,
Fablab Magdeburg,Magdeburg,,12.19,VT12,https://drive.google.com/uc?id=1_b_NkL401W_3TxG6tw-H5F1dgVo9bzWv,"Universitätsplatz 2, Otto-von-Guericke-University, Magdeburg, Saxony-Anhalt, 39106, Germany",52.13973030,11.64737190,Germany,
Fabulous Fablab Saint Pauli,Hamburg,,"03.07,02.16","VT03,VT02",https://drive.google.com/uc?id=1ptTQY5yQuHzd6wg8SXjs9Yn479MncjMR,Stockmeyerstrasse 43 Saint Pauli,53.54339090,10.00851240,Germany,
FAUFablab,Erlangen,,"11.05,10.11,08.13","VT11,VT10,VT08",https://drive.google.com/uc?id=1kY9n9UtuKbZXXLP83WK46nwVHpBdAaW2,"Schloßplatz 4, 91054 Erlangen, Allemagne",49.59769740,11.00471740,Germany,
Makerspace+ Erlangen,Erlangen,,15.08,VT15,https://drive.google.com/uc?id=1udpn_vNQWEDbASDTjzC1MvSFjTbECA60,"Hauptstraße 71, 91054 Erlangen",49.60021210,11.00265230,Germany,
Future Makerspace of Luckenwalde, Luckenwalde,,10.07,VT10,,"Beelitzer Str. 25A
14943 Luckenwalde",52.09224790,13.17300740,Germany,
Hä?ppy Lab (Macherei Bautzen),Bautzen,,12.34,VT12,,"Demminer Str. 3, 13355 Berlin, Allemagne",52.54071910,13.39469770,Germany,
Sanderhaus,Kassel,,08.37,VT08,https://drive.google.com/uc?id=16Oz6TC60NUcNdkL2i2cIObbxiCEpxGDO,"Sandershäuser Str. 79, 34123 Kassel, Allemagne        ",51.31066920,9.52760670,Germany,
KolorCubes,Kassel,,"10.02,08.35","VT10,VT08",https://drive.google.com/uc?id=1aXwwDh2ky9CwYu7ACX4qbsYau3X3T-pZ,"Harleshäuser Straße 131, 34128 Cassel, Allemagne",51.33510130,9.44076890,Germany,
Hammertime,Kassel,,"12.16,08.36,15.01","VT15,VT12,VT08",https://drive.google.com/uc?id=1VPfu04wE24UsENfquyxDooO4DG_dE497,"10 Sickingenstraße, 34117 Kassel, Allemagne",51.32022900,9.49556060,Germany,
Happylab Berlin,Berlin,,10.04,VT10,https://drive.google.com/uc?id=1qrUdC8UXKuBQ8GS8QqQRiLykrox8QQ3b,"Demminer Str. 3, 13355 Berlin",52.54071910,13.39469770,Germany,
TOP Lab,Berlin,,10.05,VT10,https://drive.google.com/uc?id=1WOTdxEP9RNuzl539_yjNaLDeE6T7Fy_m,"Schillerpromenade 4
12049 Berlin",52.47785420,13.42131840,Germany,
HobbyHimmel,Stuttgart,,12.37,VT12,https://drive.google.com/uc?id=16Mt3wynGW-PYVNVzl2A14M3ah9df0tts,"Siemensstraße 140b, 70469 Stuttgart, Allemagne",48.81859390,9.16948630,Germany,
HRW Fablab Bottrop,Bottrop,,"08.39,03.05,15.02","VT03,VT08,VT15",https://drive.google.com/uc?id=10y0SmkapX4hQPR3NimNLdSZaXcDizGBE,"Kardinal-Hengsbach-Straße 2-6, 46236 Bottrop",51.53268350,6.93278000,Germany,
Kamp-Lintfort Fablab,Kamp-lintfort,,03.06,VT03,https://drive.google.com/uc?id=13vJtGsYEVR21-oTFp0T5zjcGagsucHW8,47475 Kamp-Lintfort,51.51334910,6.51366350,Germany,
MachBar Potsdam,Potsdam,,10.03,VT10,https://drive.google.com/uc?id=1GQGs-9yJk5D2D9aGPiRrOgQURoMNfvTt,"Friedrich-Engels-Straße 22, 14473 Potsdam",52.38924230,13.07701650,Germany,
MakerTreff,Reutlingen,,12.38,VT12,https://drive.google.com/uc?id=1a9xc10LlS_008q5W6QN__eyIBs6sxTq4,,48.49571439,9.18522614,Germany,
Oberlab (Stadtplatz 10.0),Miesbach,,06.02,VT06,https://drive.google.com/uc?id=1lFfcFa43COsWVEpz7DrqIHrI-DjJoJeO,"Stadtpl. 10A, 83714 Miesbach, Allemagne",47.78853310,11.83356790,Germany,
Protohaus,Braunschweig,,12.17,VT12,https://drive.google.com/uc?id=1juXJaHGad_XBN8DlM0bs420WLzhMwtWS,"Rebenring 31, Eingang A12, 38106 Braunschweig, Allemagne",52.27634810,10.53110180,Germany,
Rabryka,Görlitz,,08.30,VT08,https://drive.google.com/uc?id=1tosxSC1irvymkkDAdvRNgKQ5DqVytIX1,"Bautzener Str. 32, 02826 Görlitz",51.15349440,14.97610160,Germany,
SLUB Makerspace,Dresden,,"12.35,08.31","VT12,VT08",https://drive.google.com/uc?id=1b-gzHkU8hCMWDa9hHzNHCrV1Mh6D2wl3,"Zellescher Weg 17, 01069 Dresden",51.02932960,13.73911270,Germany,
RosenWerk Konglomerat,Dresden,,08.32,VT08,https://drive.google.com/uc?id=13Fh9no7PAKKmgvORAXw8dweNyaH2xDeL,"Jagdweg 1-3, 01159 Dresden, Allemagne",51.04643080,13.71594970,Germany,
Schaffenburg Hackerspace,A-Schaffenburg,,08.12,VT08,https://drive.google.com/uc?id=1sq4qvfauRxqCWPuXt9bRYPbJsAQ4ojRO,"63741 Aschaffenbourg, Allemagne	",49.99517070,9.11550800,Germany,
Sternenlab,Plauen,,15.09,VT15,https://drive.google.com/uc?id=1WGYZXXupxkZWQ-RhusVlmySHCKkqumf5,"Senefelderstraße 5, 08523 Plauen, Deutschland",50.49736023,12.12375355,Germany,
VerstehBahnhof MS,Fürstenberg,,12.20,VT12,https://drive.google.com/uc?id=1aVEqcMTKAMKc7fWB4CWX-2fXNl4zgN6G,"Bahnhofstraße 1, 16798 Fürstenberg/Havel, Allemagne",53.18635880,13.14036090,Germany,
ViNN:Lab – Makerspace der TH Wildau,Wildau,,10.06,VT10,https://drive.google.com/uc?id=1ErqSFOkWXmAdjrlooXoQNSOPphBCAFbL,"Haus 16A, Raum 2095, Hochschulring 1, 15745 Wildau",52.31806200,13.63018960,Germany,
WerkBox,Villingen-Schwenningen,,12.39,VT12,https://drive.google.com/uc?id=1vexQiGAF76xoY61HexLC9kCWz1CnYsaP,"Villinger Str. 31, 78054 Villingen-Schwenningen, Allemagne",48.06197440,8.52750220,Germany,
Bio Makerspace,Cambridge,,09.41,VT09,https://drive.google.com/uc?id=1PMsylcFLS5guDnXcqlN4x7Nj-aB6b9uq,"Clifford Allbutt, Hills Rd, Cambridge CB2 0AH",52.17633050,0.14279280,England,
Makespace Cambridge ,Cambridge,,09.40,VT09,https://drive.google.com/uc?id=1ceiNinTk1n4H5iaU9f_lLOmBwYzPv9YE,"16 Mill Ln, Cambridge CB2 1RX",52.20169450,0.11677400,England,
Fablab London,London,,02.05,VT02,https://drive.google.com/uc?id=1XAnl71UCyxl4mDSueP_ZnZl06I5bscHn,"1 Frederick's Place, London, EC2R 8AE, United Kingdom of Great Britain and Northern Ireland",51.51426450,-0.09122440,England,
Institute of Making,London,,09.46,VT09,https://drive.google.com/uc?id=1NGK9H-jT-1I2eaeRnbNcpCY7KL0pNINA,"University College London, Malet Pl, Bloomsbury, London WC1E 7JE",51.52455920,-0.13404010,England,
Music Hackspace,London,,09.47,VT09,https://drive.google.com/uc?id=14p20UP6gRJLQLSTMm8Caa0iL4QgXW0dS,"Somerset House, Lancaster Pl, London WC2R 1LA",51.51098300,-0.11833860,England,
BlackHorse Workshop,London,,09.44,VT09,https://drive.google.com/uc?id=1Pw0GiHHRaCWf4FK99L0iw2bKOjNAOAdx,"1-2 Sutherland Road, Path, London E17 6BX",51.59092590,-0.03464360,England,
Creative Nature HQ,London,,09.45,VT09,https://drive.google.com/uc?id=1TXhSySGz9j0QElMYHr_Nd2YBi8l_bO1I,"08 Trinity Wharf, Harrington Way, London",51.49513650,0.04349200,England,
South London Makerspace,London,,09.37,VT09,https://drive.google.com/uc?id=1e1DpZ-x9cY9VOjwho_tx3f-sgJjBKm-L,"Arch 1129, 41 Norwood Road, Bath Factory Estate, London SE24 9AJ, United Kingdom",51.45209190,-0.10099070,England,
GreenLab,London,,09.43,VT09,https://drive.google.com/uc?id=1_SZDM2hgcBTeNYJnDLYDJAYRtGSe-0q-,"Corner of Collett and Keeton's Road, Bermondsey, London SE16 4EE",51.49648520,-0.06304250,England,
Machines Room,London,,"09.42,02.06","VT02,VT09",https://drive.google.com/uc?id=1uRGceBLl98TXcNGClWwoqYEnxsqLMtUB,"45 Vyner Street, London E2 9DQ",51.53494440,-0.05519960,England,
Blackpool Makerspace,Blackpool,,09.27,VT09,,"Palatine Library, Blackpool. FY4 2AP",53.79517690,-3.04143170,England,
Build Brighton,Brighton,,09.51,VT09,https://drive.google.com/uc?id=1n6NTcdcXk9hubCTwHA1qE1x5E9NpG4Ol,"Rodhus, Freehold Terrace, Brighton BN2 4AB",50.83816710,-0.12673280,England,
Eagle Labs Brighton,Brighton,,09.50,VT09,https://drive.google.com/uc?id=1rzgiTMKJOabNgSHrA925D58WR7cLE1Oa,"1 Preston Rd, Brighton BN1 4QU",50.83374350,-0.13939300,England,
Exploring sense ,Brighton,,09.52,VT09,https://drive.google.com/uc?id=18ujUo4Ez6rP-bKDheaxJNcrF23k5pHqb,"Lewes Rd, Brighton BN1 9PW",50.85941050,-0.09673740,England,
Make Liverpool,Liverpool,,09.32,VT09,https://drive.google.com/uc?id=1MKKXDT901FmCktpPiZhVEOz6Le1YE2ht,"Unit 1, 34 Regent St, Liverpool L3 7BN, United Kingdom",53.41816190,-2.99760000,England,
Fablab Liverpool,Liverpool,,09.33,VT09,https://drive.google.com/uc?id=1__lQ0MM4D5CPu3vojy9rkFg05ME2NzPs,"John Lennon Art and Design Building, Duckinfield St, Liverpool, Merseyside, L3 5YD, United Kingdom",53.40507500,-2.97020570,England,
DoES Liverpool,Liverpool,,09.31,VT09,https://drive.google.com/uc?id=1hquXmkdtAhphVCQVchiC46yBM7Hf5Ewv,"The Tapestry, 68 - 74 Kempston St, Liverpool L3 8HL, United Kingdom",53.41041180,-2.97047870,England,
Fablab Coventry,Coventry,,09.36,VT09,https://drive.google.com/uc?id=1TL5ths7RqQP3ecW2YkYHXy0e3rrHA7yj,"Unit 27, City Centre, City Arcade, Coventry CV1 3HX, United Kingdo",52.40610400,-1.51503640,England,
Fablab Warrington,Warrington,,09.34,VT09,https://drive.google.com/uc?id=1LMGlYhE47PUV5JuZOYQ6hrhQNWhCZnhY,"Beamont Collegiate Academy
Long Lane
Warrington
Cheshire
WA2 8PX",53.40806760,-2.58916720,England,
Hack Oldham ,Oldham,,09.28,VT09,https://drive.google.com/uc?id=1wlxoJYSzFtlMA3J1CHeue2tW3UYwBPqg,"38-44 Yorkshire St, Oldham OL1 1SE, United Kingdom",53.54215520,-2.10911010,England,
Hackerspace Newcastle,Newcastle,,09.23,VT09,https://drive.google.com/uc?id=1gB0kSnCHaOPVegT9sZ4DiyFGMk9RElSC,"Commercial Union House, 39 Pilgrim St, Newcastle upon Tyne NE1 6QE, United Kingdom",54.97366790,-1.61121870,England,
Hacman - Hackspace Manchester,Manchester,,09.30,VT09,https://drive.google.com/uc?id=1d6e1IAftTJCkHyl8K1KgYxyhQ9uGTGQN,"Wellington House, Pollard St E, Manchester M40 7FS, United Kingdom",53.48468360,-2.21394670,England,
Ipswich Makerspace,Ipswich,,09.38,VT09,https://drive.google.com/uc?id=1N9AcsWQQKBRnmcuH6uk8x8YavmsA_PqK,"11 Dove St, Ipswich IP4 1NG, ",52.05621720,1.16470770,England,
Leigh Hackspace,Leigh,,09.35,VT09,https://drive.google.com/uc?id=1FokCdiLgdu4AwmVagpHsCJ1dNu31dznn,"3rd Floor Leigh Spinners Mill, Park Ln, Leigh WN7 2LB, United Kingdom",53.49293840,-2.49358250,England,
Norwich Hackerspace,Norwich,,09.39,VT09,https://drive.google.com/uc?id=1VJQnLCwh0CoBo_hGNYr8ZRmEoI0_hZwg,"20 - 28 Muspole Street, NR3 1DJ",52.63391020,1.29301390,England,
Preston Hackerspace,Preston,,09.26,VT09,https://drive.google.com/uc?id=1wXcrtAEZDCwzLTx22Aa9uk1OmvmRoDPA," 9 Cross St, Preston PR1 3XA, Royaume-Uni",53.75636290,-2.69916780,England,
So Make It,Southampton,,09.48,VT09,https://drive.google.com/uc?id=1yN3aOnQWO0k-UNSIf0vv8RLb6KCH9DOB,"Pitt Rd, Southampton SO15 3FQ",50.91301330,-1.42619970,England,
The Making Room,Blackburn,,09.24,VT09,https://drive.google.com/uc?id=1vtHUGk0c5lmBw8a3yTOynihIhMCNA-un,"1 Exchange St, Ewood, Blackburn BB1 7JN, Royaume-Uni",53.75008200,-2.48440300,England,
Bonevet Gjakova,Gjakova,,11.37,VT11,https://drive.google.com/uc?id=1OY5c7ZXZdL9JlQMFQYayK-ru_RZHKu7D,"Str. ""Vëllezërit Frashëri, Gjakovë 50000",42.38441040,20.42850210,Kosovo,
Prishtina hackerspace,Prishtina,,11.36,VT11,https://drive.google.com/uc?id=1UXtIUKpUdec92UFk7T_iF1PWhs_0bhaf,"Ganimete Terbeshi, No. 2, Prishtinë 10000, Kosovo",42.65617500,21.16959400,Kosovo,
Brugge Fablab,Brugge,,02.04,VT02,https://drive.google.com/uc?id=1Bo2VSOmACTYhOu_VXAPIfAAJj1uV_npl,"Binnenweg 4, Brugge, West- Vlaanderen , 8200, Belgium",51.22598030,3.22581300,Belgium,
Fablab Factory,Aalst,,05.02,VT05,https://drive.google.com/uc?id=1EZB46Qd7REHBQVxHWJm_5baZTTeaMiO3,"Passage Pieter van Aelst 12, 9300 Aalst, Belgique",50.93912100,4.03689290,Belgium,
Fablab Leuven,Leuven,,12.13,VT12,https://drive.google.com/uc?id=1ykfgTb7HdxoxiCD9VW0O0hAeAUrliFvT,"Celestijnenlaan 300, 3001 Leuven, Belgique",50.86070870,4.68060330,Belgium,
Imal,Brussels,,03.17,VT03,https://drive.google.com/uc?id=1qlggpTwCnBr6KPz0SylXD1elNFH-A3Xa,"Quai des Charbonnages 30/34, 1080 Bruxelles",50.85505210,4.34158940,Belgium,
IncubHacker,Namur,,05.05,VT05,https://drive.google.com/uc?id=1woDXyiz_1Fxd_ybtF9_7U5E7TtR_1Ygh,"Boulevard d'Herbatte 14a, 5000 Namur, Belgique",50.46812620,4.87764730,Belgium,
TRAKK Namur,Namur,,"12.15,05.04","VT12,VT05",https://drive.google.com/uc?id=1zMQq73g7zGhMT72AB6hr-k_t7UYkugWN,"Avenue Reine Astrid 16, 5000 Namur, Belgique",50.46213210,4.85697360,Belgium,
RElab,Liege,,"12.02,08.06","VT08,VT12",https://drive.google.com/uc?id=1DLAhc13iI3kIZX0h9nii7Wa-Dy3F-8rG,"Rue Lambert-Lombard 1, 4000 Liège, Belgique",50.64389390,5.57434990,Belgium,
LGHS,Liege,,"08.07,12.03","VT08,VT12",https://drive.google.com/uc?id=1CGNMm2ET_hbFh6YkoDJlZDCI6rKCykIQ,"Quai de la Dérivation 54, 4020 Liège, Belgique",50.64197400,5.58998620,Belgium,
Micro Factory,Anderlecht,,05.03,VT05,https://drive.google.com/uc?id=1voCMITId2EdeEa6bkrD9nQghcJTHotHi,"Quai Fernand Demets 55, 1070 Anderlecht, Belgique",50.84484790,4.32449850,Belgium,
Openfab,Bruxelles,,"15.3,12.14,09.53,08.05,05.01,03.18,02.03","VT02,VT03,VT05,VT08,VT09,VT12,VT15",https://drive.google.com/uc?id=1FVKxeOOkwc2G3s6Oa_zgLF5qgCpBd-UJ,"Rue Gray 158, 1050 Ixelles, Belgique",50.83290320,4.37859790,Belgium,
Ogrenenler ,Istanbul,,11.23,VT11,https://drive.google.com/uc?id=1bpfrnSid__tjRocNZQHSooi1JYssDrd_,"Sinanpaşa, No 8-10, Selamlık Cd., 34353 Beşiktaş, Turkey",41.04436440,29.00597000,Turkey,
 Nalbür Üstu Makerspace,Istanbul,,11.26,VT11,https://drive.google.com/uc?id=1J-fwEkJI7nRRxkvbi2Ld-8MvcoomjnHN,"Şht. Cihan Erkan Sokağı No:11Muratpaşa, 34040 Bayrampaşa/İstanbul, Turquie",41.04515560,28.90948710,Turkey,
Collaboration Space,Istanbul,,11.27,VT11,https://drive.google.com/uc?id=1fgCeAh2ecLi0DG5OEPfolTussjmWXAjR,"Orta, Üniversite Cd. No:27, 34956 Aydınlı - İstanbul Ay Osb/Tuzla/İstanbul, Turquie",40.88193250,29.38079000,Turkey,
InnoCampus,Istanbul,,11.25,VT11,https://drive.google.com/uc?id=17CzRLmgu1vkRdi1LariK8rn_em3o-UPZ,,41.00982767,28.96516461,Turkey,
Copenhagen Fablab,Copenhagen ,,03.10,"VT03,VT06,VT10",https://drive.google.com/uc?id=1dakMMPuY-uVMkGitImTOdSBRlK7Gz9rh,"Valgårdsvej 4, 2500 København, Danemark",55.66115390,12.51840030,Denmark,
Fablab EAL Odense,Odense,,03.09,VT03,https://drive.google.com/uc?id=13zi11Z6XDcXmWHlbYXhmw6orjLQ_DFDL,"Seebladsgade 1, 5000 Odense, Danemark",55.40354430,10.37986120,Denmark,
FabLab Guldborgsund,Guldborgsund,,03.13,VT03,https://drive.google.com/uc?id=1NXbw2kyb3L_yYmFmjzI215_aM99421dE,"Kongensgade 43, 4800 Nykøbing Falster, Danemark",54.76987910,11.86992290,Denmark,
RUC FABLAB ,Roskilde,,03.12,VT03,https://drive.google.com/uc?id=1E1sjRtIDZr3wEjfjviv0WX1vuC8LJBSm,"Universitetsvej 1, Building 4, 4000 Roskilde",55.65320700,12.14078010,Denmark,
SpinderiHallerne,Vejle,,03.08,VT03,https://drive.google.com/uc?id=1mjyruN9xlvDWZmXEGHo4HtRoywHyRtio,"Spinderigade 11E, 7100 Vejle, Danemark",55.71382900,9.53014500,Denmark,
TI Fablab,Taastrup,,03.11,VT03,https://drive.google.com/uc?id=1ecuoOHA-s62mcDg85PbaT26mE-KHtXAb,"Gregersensvej, 2630 Taastrup, Danemark",55.65907400,12.26869420,Denmark,
Creative Point ,Bratislava,,06.08,VT06,https://drive.google.com/uc?id=138ImDxYfPOu1vhpZZY8WEpOmcz665r-_,"Karadžičova, 821 08 Bratislava, Slovaquie",48.15061110,17.12539530,Slovakia,
Fablab Bratislava,Bratislava,,06.07,VT06,https://drive.google.com/uc?id=17Cb2cluvoG-s2bJt7cDzLGEgEuzV1Odz,"Vedecký park UK, Ilkovičova 8, 841 04 Bratislava-Karlova Ves, Slovaquie",48.14932730,17.07374100,Slovakia,
ProgressBar Coworking-Hackerspace,Bratislava,,08.25,VT08,https://drive.google.com/uc?id=1Asl0_WY9kZRxeVLxfwYMS-1w-e5mXebi,"Dunajská 7495/14, 811 08 Bratislava, Slovaquie	",48.14455590,17.11549060,Slovakia,
Cuneo Fablab,Cuneo,,04.12,"VT04,VT08",https://drive.google.com/uc?id=1zKgeXaiIBt7eGU7Ye9cf_U0Lpry4cD6k,"Via XXVIII Aprile, 22, 12100 Cuneo CN, Italie",44.38957920,7.54169430,Italy,
Fablab Bergamo,Bergamo,,11.44,VT11,https://drive.google.com/uc?id=1yKnlrjYH1Ux0tOpfvRpLajlHeGanVli6,"Via Mauro Gavazzeni, 3, 24125 Bergamo BG, Italie",45.68705920,9.67411680,Italy,
FabLab Imperia,Imperia,,07.40,VT07,https://drive.google.com/uc?id=1cVp1DbsYPTpiIqWCKmuLKiekQ3jE7GPn,"Fablab Imperia, Puerto, Via Giacomo Matteotti 31 c/o Centro Aggregativo, 18100 Imperia IM, Italie",43.87848510,8.01628370,Italy,
Fablab MUSE,Trento,,10.15,VT10,https://drive.google.com/uc?id=1UAieXE11rB-eaELzo5y5vU30f4aAFrcc,"Corso del Lavoro e della Scienza 3, Trento, Trentino-Alto Adige/Südtirol, 38122, Italy",46.06257240,11.11460810,Italy,
Fablab Verona,Verona,,"11.43,10.14,07.41","VT07,VT10,VT11",https://drive.google.com/uc?id=1M9ofATEp3vUUguaIZH5xiJjY1p-ybfXY,"Viale del Lavoro, 2, 37023 Grezzana VR, Italie",45.52334360,11.01813270,Italy,
JRC Makerspace,Ispra,,10.13,VT10,https://drive.google.com/uc?id=178XxDLXvrsmvCkraQA4SGZAJuAkGcEaU,"JRC Ispra, 21027 Ispra VA, Italy",45.80392630,8.62968840,Italy,
Officine ZIP - FabLab Padova ,Padova,,04.11,VT04,https://drive.google.com/uc?id=1XmZPO6K1uM4IBk_K83NYLNjDANWefSwV,"Viale dell'Industria, 19, 35129 Padova PD, Italie",45.41168410,11.91760270,Italy,
Fab Lab Ballyshannon,Ballyshannon,,09.10,VT09,https://drive.google.com/uc?id=1qhj03rPUaxI9jl7Kc_0Y_k3HY0whXyOe,"Beal Na Mara, The Mall, Townparks, Ballyshannon, Co. Donegal, F94 XPH0",54.50158770,-8.19354810,Ireland,
FabLab Belfast,Belfast,,09.13,VT09,https://drive.google.com/uc?id=1dvszDIx4PenHWiyUsQRJMnrHLRURFs29,"5 Churchill St, Belfast BT15 2BP, Royaume-Uni",54.61001740,-5.93570130,Ireland,
Farset Labs,Belfast,,09.14,VT09,https://drive.google.com/uc?id=1Jy0xaQwG2oTb48iSHpO-xquIYbockT44,"Weavers Court, Linfield Rd, Belfast BT12 5GH, Royaume-Uni",54.59253080,-5.94060410,Ireland,
Fablab Limerick,Limerick,,09.09,VT09,https://drive.google.com/uc?id=19DiclPndYwU8od-tyBAdX1bkwDmX-DkV,"Rutland St, Limerick",52.66591920,-8.62416360,Ireland,
FABLAB Manorhamilton,Manorhamilton,,09.11,VT09,https://drive.google.com/uc?id=1SEdskVYBU3cn7ryv-x6FepJnl5cJSQgz,"Fawn, Dromahair, Manorhamilton, Leitrim",54.30391730,-8.17495020,Ireland,
Fablab Nerve Centre,LondonDerry,,09.12,VT09,https://drive.google.com/uc?id=1dvszDIx4PenHWiyUsQRJMnrHLRURFs29,"5-6 Magazine St, Londonderry BT48 6HJ, Royaume-Uni
",54.99658510,-7.32258330,Ireland,
Makerspace Dublin,Dublin,,09.04,VT09,,Adrian avenue kimmage,53.31875180,-6.28375080,Ireland,
TOG_Hackerspace,Dublin,,09.05,VT09,https://drive.google.com/uc?id=1q9Ug5oyaLIEJn3s4cEtTl8u9U7NVErg_,"22 Blackpitts, Merchants Quay,",53.33448050,-6.27546940,Ireland,
Tyndall Makerspace (Codo Dojo),Cork,,09.08,VT09,https://drive.google.com/uc?id=1rj_59xsvUvucprfnz0jUjJoXPF3B00dT,"Lee Maltings Complex Dyke Parade, T12",51.89819340,-8.48337970,Ireland,
Fablab Bangor,Bangor,,09.19,VT09,https://drive.google.com/uc?id=17uSnDiFjktlNAh1NATVZNpaeOxd2N4Kg,"University, Pontio, Deiniol Rd, Bangor LL57 2TQ, Royaume-Uni",53.22750360,-4.12970270,Wales,
Fablab Cardiff,Cardiff,,09.21,VT09,https://drive.google.com/uc?id=1DFjmfmej3DO7Z7JEm15n80WgAZk1VjEc,"Llandaff Campus, 200 Western Ave, Cardiff CF5 2YB, Royaume-Uni",51.49551040,-3.21145870,Wales,
Newport Makerspace,Newport,,09.22,VT09,,,51.58790207,-2.99674153,Wales,
Swansea Hackerspace ,Swansea,,09.20,VT09,https://drive.google.com/uc?id=1CCBYg8SRTPKb16IR5iuRSVhpYAyhjeb6,"21, 22 Park St, Swansea SA1 3DJ, Royaume-Uni",51.62021650,-3.94613930,Wales,
Fablab Budapest,Budapest,,06.06,VT06,https://drive.google.com/uc?id=1so8iPVZ2fKfvU_rpmS3uF4jGi9dlSOi1," Budapest, Eötvös u. 29, 1067 Hongrie",47.50785170,19.06237400,Hungaria,
Hackerspace.gr,,,11.28,VT11,https://drive.google.com/uc?id=1yKYKLRiG9GGMAHFIx5dQgrsrlT8QpkEO,"Ampatielou 11, Athina 111 44, Grèce",38.01694570,23.73126730,Greece,October Maker 2021
Fablab Decode,Athens,,11.29,VT11,https://drive.google.com/uc?id=1_R2fpeOTSP4UouqlYBt9CZ-DQeQ8OCYs,"Vasilissis Sofias 129, Athens 115 21, Grèce",37.97658930,23.74835830,Greece,
Fablab ioannina,ioannina,,11.31,VT11,https://drive.google.com/uc?id=1U02pA3vRWUpuCDvIYkO-9Me6mSicTtH6,"Archiepiskopou Makariou 11, Ioannina 452 21, Grèce",39.61733930,20.89563860,Greece,
Tzoumakers ,ioannina,,11.32,VT11,,,39.49052800,20.97736100,Greece,
Habibi.Works,ioannina,,11.30,VT11,https://drive.google.com/uc?id=1_AvI12Zk6jS0j9pZKU_GN9wrTuy9z0ky,"2o klm E.O. KATSIKA - KOUTSELIO, ENANTI PALAIOU AERODROMIOU, Katsikas 452 21, Grèce",39.58843590,20.91335880,Greece,
P2P Lab,ioannina,,11.33,VT11,https://drive.google.com/uc?id=1h0YGo0Sj5FoKNhOe3YeghR6kCTQc4KKL,"Papadopoulou 5, Ioannina 454 44, Grèce",39.66713610,20.85339910,Greece,
Fablab Fribourg,Fribourg,,02.17,VT02,https://drive.google.com/uc?id=18u_-XLnVOFCVR1sGnmhx9gwKxFdpdCNF," Passage du Cardinal, 1700 Fribourg, Suisse",46.79852280,7.14839580,Switzerland,
Fablab Luzern,Luzern,,06.11,VT06,https://drive.google.com/uc?id=1Z2i0xIUoTyNeAU-Wx9wcuV_KAw-aMh2M,"Technikumstrasse 21, 6048 Horw, Suisse",47.01407990,8.30542830,Switzerland,
Fablab Neuchâtel,Neuchâtel,,04.01,VT04,https://drive.google.com/uc?id=1woIRxpxajDh2dSzmc1EYdxKYp4xwKRVV,"Espace de l'Europe 7, 2000 Neuchâtel, Suisse",46.99751140,6.93840500,Switzerland,
Makerspace Lausanne,Renens,,12.41,VT12,https://drive.google.com/uc?id=17yO8E5jLRMyqvFVSZBnJzWnl_sqMsLHE,"Chemin du Closel 2, 1020 Renens, Switzerland",46.53227270,6.59001570,Switzerland,
Hackuarium,Renens,,06.13,VT06,https://drive.google.com/uc?id=1-xc9Pi6Bkgf2dE3sdTP6PpYILopQgARK,"Route de Crochy 20, 1024 Ecublens, Suisse",46.53538160,6.56923770,Switzerland,
Fablab Renens,Renens,,"12.40,06.12","VT12,VT06",https://drive.google.com/uc?id=1b19fvaVJB-X1302sFjMuFzpSkvYiLmjO,"Chemin du Closel 3, 1020 Renens, Suisse",46.53233730,6.59128140,Switzerland,
FabMobile Switzerland,Nyon,,07.44,VT07,https://drive.google.com/uc?id=1GDuQBYkYpjYx5N_n0UTU-VaBZFD9R73b,"Chemin du Réservoir 14, 1410 Denezy, Suisse",46.72289090,6.78193570,Switzerland,
Onl'Fait,Geneva,,11.46,VT11,https://drive.google.com/uc?id=1NDj8DrnRMjx4cMTiBKh9-_8j_Zq3bgio,"Chemin des Sports 87, 1203 Genève, Suisse",46.20963710,6.11733680,Switzerland,
SDG Solution Fablab,Geneva,,"12.42,11.45,07.46","VT07,VT11,VT12",https://drive.google.com/uc?id=178XxDLXvrsmvCkraQA4SGZAJuAkGcEaU,,,,Switzerland,
Fablab Gdansk,Gdansk,,12.22,VT12,https://drive.google.com/uc?id=1lFgsKT_S303fLAOuYQBpzZl7qKXnsT__,"Dolna Brama 8, 80-821 Gdańsk, Pologne",54.34052720,18.64770320,Poland,
Trojmiasto Hackerspace,Gdansk,,12.23,VT12,https://drive.google.com/uc?id=14K6yEAKQA1y3Tkdungbhe58EoONUYRHl,"aleja Wojska Polskiego 41, 80-277 Gdańsk, Pologne",54.38961930,18.58178000,Poland,
Poklad Makerspace,Lodz,,12.26,VT12,https://drive.google.com/uc?id=1kMD4Vxg1c5ZiehFsg2ZBdn1YtpE2-6uY,"al. Marszałka Józefa Piłsudskiego 135, 92-318 Łódź, Pologne",51.76261460,19.50046560,Poland,
Fablab Lodz,Lodz,,12.25,VT12,https://drive.google.com/uc?id=1tGI_NuvlJrlNZS_RMeyJfa6SBDiZH3V-,"Marszałka Józefa Piłsudskiego 135, 90-001 Łódź, Pologne",51.76261460,19.50046560,Poland,
Fablab Slupsk,Slupsk,,12.21,VT12,https://drive.google.com/uc?id=1AmT9SsQG222uGXTT-KVkXzvLcaVpKZLr,"Stefana Banacha 17, 76-200 Słupsk, Pologne",54.47013350,16.99987340,Poland,
Hackerspace Krakow,Krakow,,12.28,VT12,https://drive.google.com/uc?id=1W0uT5p_exToU2BuWCdkXgz-yHU8rXtWB,"Zacisze 5/P1, 31-156 Kraków, Pologne",50.06606700,19.94333400,Poland,
Wytwornia Krakow MS,Krakow,,12.27,VT12,,,,,Poland,
Nokia Garage Lab,Wrocław,,12.30,VT12,https://drive.google.com/uc?id=1UYPF05jmBz2dexDvoRTHxopL1x2E8-mN,"Szybowcowa 2, 54-130 Wrocław, Poland",51.12586970,16.97818660,Poland,
Pin Workshop,Wrocław,,"12.31,08.23","VT08,VT12",https://drive.google.com/uc?id=1NZ4MkEokjFru_aW3kxwe9yVsRldfYoRn,,,,Poland,
Hackerspace Wrocław,Wrocław,,"12.29,08.22","VT12,VT08",https://drive.google.com/uc?id=1QM-5XsgKM26lZaUMRu03eMe1zZouEWxx ,"Wróblewskiego 40, 51-621 Wrocław, Pologne",51.10459870,17.08693870,Poland,
Pracownia fablab,Bydgoszcz,,"12.24,08.21","VT08,VT12",https://drive.google.com/uc?id=1gf6KTzL-__UNWuYAuLbYRA6vp01h9r7K,"Jezuicka 22, 85-001, Bydgoszcz, Pologne",53.12170370,17.99827730,Poland,
Pralnia Makerspace,Sokołowsk,,"10.09,08.24","VT08,VT10",https://drive.google.com/uc?id=1ICUybCr4IXLVQ8IiOrEEeIks8ZqICiMh,,,,Poland,
Zakład ,Poznan,,"10.08,08.20,02.14","VT02,VT08,VT10",https://drive.google.com/uc?id=1FP71juvt-W9-lOkoFJN4m7fHmox6Zakz,,,,Poland,
Fablab Hornafjordur,Hornafjordur,,02.08,VT02,https://drive.google.com/uc?id=1nLg9O_BLMlzHDL-IqrugKlJPYWKqHDYv,"Hornafjörður, Islande",64.24970260,-15.20200770,Iceland,
Fablab Ísafjördur,Ísafjördur,,02.07,VT02,https://drive.google.com/uc?id=1b6MlAdc-q9h_bKSvfhkr85z-C6H397OO,"Torfsnesi, Skutulsfjarðarbraut, 400 Ísafjörður, Islande",66.06809110,-23.15428730,Iceland,
Fablab Reykjavik,Reykjavik,,02.10,VT02,https://drive.google.com/uc?id=12ciFZk72F-LOZ8K4fiJ9HsvcJejgkOO5,"Austurberg 5, 111 Reykjavík, Islande",64.10586340,-21.81780850,Iceland,
Fablab Vestmannaeyjar,Vestmannaeyjar,,02.09,VT02,https://drive.google.com/uc?id=1kRuEl4JUosZumKk9hDCawlNcIRtblRIp,"Dalavegi 2, Vestmannaeyjar, Islande",63.44064320,-20.29418350,Iceland,
Fablab Hr,Zagreb,,"11.12,04.07","VT11,VT04",https://drive.google.com/uc?id=1sgITH-G0Gte6ChtoOoPeFtwmosIkmiVr,"Ilica 69, 10000, Zagreb, Croatie",45.81253700,15.96523890,Croatia,
Radiona Makerspace,Zagreb,,11.11,VT11,https://drive.google.com/uc?id=1AnxZLZWNCFP0t-SkjKoeJ8bSuLMoFSVj,"Nova cesta 186, 10000, Zagreb, Croatie",45.79321600,15.95511710,Croatia,
Fablab Rijeka,Rijeka,,11.39,VT11,,"Ilica 6910000, Zagreb, Croatie
",45.81448330,15.93770890,Croatia,
LabOs,Osijek,,11.16,VT11,https://drive.google.com/uc?id=1KxUxu6UBY7DPcSA30DYAHItCUssdJf6Y,"Dom Tehnike, Trg Jurja Križanića 1, 31000, Osijek, Croatie",45.56114220,18.69439180,Croatia,
Mach Lab,Dugo Selo ,,11.10,VT11,https://drive.google.com/uc?id=1JUM6l9UP2rg1MdA883Y05GTyww2Clwmi,"Ul. Josipa Zorića 17, 10370, Dugo Selo, Croatie",45.80583830,16.23540360,Croatia,
Fablab Riga,Riga,,02.12,VT02,https://drive.google.com/uc?id=1PHCnbHFN3dbqYTm0Jv4h1hmzqVglKPiF,"Lāčplēša iela 52/54, Latgales priekšpilsēta, Rīga, LV-1011, Lettonie",56.95192910,24.12949480,Lettonia,
Nava C2,Timisaora,,15.14,VT15,https://drive.google.com/uc?id=1vp2xQmM_Tk9ZhIHMx8Z89OGUM1gkVAyw,"Bulevardul Regele Carol I Nr. 9, Timișoara 300180, Roumanie",45.74507536,21.21233764,Romania,
FOR,Timisaora,,15.12,VT15,https://drive.google.com/uc?id=1d7x7tIaBSdqSV2btXozNNzy2KFe8CHPB,"Splaiul Peneș Curcanul 4-5, Timișoara 300124, Roumanie",45.76060020,21.24872050,Romania,
Plan Zero,Timisaora,,15.13,VT15,https://drive.google.com/uc?id=1efEp6nBCOm4bb-woNQIClxZ8zuIoHHcp,"Lazaretní 1, 615 00 Brno-Židenice, Tchéquie",49.20475440,16.63655890,Romania,
Praksa Makerspace,Belgrade,,11.19,VT11,https://drive.google.com/uc?id=1pqLAJHLCCd8wpAGu-RzaUG0VLN_C1hRw,"Kraljevića Marka 18, Beograd 113405, Serbie",44.81425170,20.45488540,Serbia,
Garage Lab,Belgrade,,11.20,VT11,https://drive.google.com/uc?id=1ZBYFt2r5rK7P8DR_fhA7GV2ExcFtNZkg,"Kralja Milana 10, Beograd 11000, Serbie",44.81045180,20.46217020,Serbia,
Makers Serbia,Novi Sad,,"11.17,04.06","VT04,VT11",https://drive.google.com/uc?id=1xc9BjhCt5wQKW53MDGOdheT9YuUkiTJZ,Karađorđeva 27 Šabac Serbia,44.75586330,19.69710050,Serbia,
Ideal Lab,Novi Sad,,11.18,VT11,https://drive.google.com/uc?id=1Nbz3LS2xOitJFUJSAmjeB5BF4874C3p1,"Dr Zorana Đinđića 1, Novi Sad 21000, Serbie",45.24733500,19.85413860,Serbia,
Pionir,Kikinda,,15.11,VT15,https://drive.google.com/uc?id=1IXIXaOdqW5gj_WamkjHM0gRfSNGosol8,Generala Drapšina 138,45.73264826,20.65997866,Serbia,
Polyhedra,Beograd,,"06.05,04.05","VT04,VT06",https://drive.google.com/uc?id=19SbxFTKEero9Qqk59W2P32qMk5IN-x0_,"Dojranska 16, Belgrade, 11000, Serbia",44.79543580,20.49489710,Serbia,
Meta Lab ,Vienna ,,11.07,VT11,https://drive.google.com/uc?id=1pZ0FKOVNdDClOozAh6wFtoNIYCuOJc46,"Verein Metalab, Rathausstraße 6, 1010 Wien, Austria",48.20949260,16.35620610,Austria,
HappyLab Vienna,Vienna ,,06.09,VT06,https://drive.google.com/uc?id=1wyQslwCd53ryGM7RLFioKWi-qcS4i3xd,"Haussteinstraße 4, 1020 Wien, Autriche",48.22808230,16.40016610,Austria,
OLGA,Graz,,??,,https://drive.google.com/uc?id=1KbiD3tIiTq7t5hJCqGd0qGbS3ytHPeGE,"Brockmanngasse 15, 8010 Graz, Autriche",47.06552680,15.45058110,Austria,
realraum3,Graz,,11.08,VT11,https://drive.google.com/uc?id=1LmUvx4OHVDOiCk7fDTioWyhteaaIdoEf,"Brockmanngasse 8-20, 8010 Graz, Autriche",47.06628140,15.45047290,Austria,
Smart Fablab,Sofia,,"11.21,04.04","VT04,VT11",https://drive.google.com/uc?id=17cq7wPORAZ3LNkNsa0rpvmna1Qh6vdRs,"pl Dragan Tsankov 6, 1164 g.k. Lozenets, Sofia, Bulgarie",42.68417970,23.33233430,Bulgaria,
InitLab (Vencislav Atanasov),Sofia,,11.22,VT11,https://drive.google.com/uc?id=1_yKYJXAv8tSBdKU31xkyHgbPpwtVSc_Q,"ul. ""Rila"" 6, fl. 2, 1202 Orlandovtsi, Sofia, Bulgarie",42.70770840,23.32524740,Bulgaria,
Institute 404,Ljubljana,,11.40,VT11,https://drive.google.com/uc?id=1RkPRlU7ULoQcEZEc6fkDZHWqSnkCFbT5,"Mencingerjeva ulica 7, 1000 Ljubljana, Slovénie",46.04221540,14.49577660,Slovenia,
RogLab,Ljubljana,,"11.41,07.42,06.03,04.09","VT04,VT06,VT07,VT11",https://drive.google.com/uc?id=1F_irfh63gnTCiN7VNxEYRsGsw74BhjLy,"Petkovškovo nabrežje 67, 1000 Ljubljana, Slovénie",46.05103410,14.51651270,Slovenia,
Poligon Creative Center,Ljubljana,,"11.42,07.43,06.04,04.10","VT11,VT07,VT06,VT04",https://drive.google.com/uc?id=1GDuQBYkYpjYx5N_n0UTU-VaBZFD9R73b,"Tobačna ulica 5, 1000 Ljubljana, Slovénie",46.04877470,14.49340600,Slovenia,
kretaor lab,Maribor,,"04.08,11.09","VT04,VT11",https://drive.google.com/uc?id=1hS6VmWxftQc0vCxfVqelvOmNRnw6_d8a,"Preradovičeva ulica 40, 2000 Maribor, Slovénie",46.55600190,15.62581930,Slovenia,
Meškėnų laboratorija (MLab),Vilnius,,02.13,VT02,https://drive.google.com/uc?id=1zHKk1vbmGSOF3uSBVxDZ7t_AwQETVk5q,"Meškėnų labaratorija, Vilnius 10312, Lituanie",54.69445780,25.30699580,Lithuania,
Open Box Studio,Podgorica,,11.38,VT11,https://drive.google.com/uc?id=1CxJi2MKfB-HMyEcbUnA2lcNnf_umjHBn,"47 Beogradska, Podgorica, Monténégro",42.44339610,19.27521460,Montenegro,
Openlabs Tirana,Tirana,,11.34,VT11,https://drive.google.com/uc?id=1jQWPmLxfI6c-SHG2pob3kIPCbDoVIQpY,"Open Labs Hackerspace, Tirana, Albanie",41.32140790,19.82917750,Albanie,
Pepper MINT,Vaduz,,10.12,VT10,https://drive.google.com/uc?id=1qaPF-2-p9td9eyyAlCpCpgev4TggqPio,"Landstrasse 114, 9490 Vaduz, Liechtenstein",47.15420270,9.51078680,Liechtenstein,
Promprylad,ivano frankivsk,,04.03,VT04,https://drive.google.com/uc?id=1z2GKsUYv1jjKit9z0b76b53lgfprfmS3,"м, Akademika Sakharova Street, 23, Ivano-Frankivsk, Ivano-Frankivsk Oblast, Ukraine, 76000",48.91440670,24.71072000,Ukraine,
Robokids,Banja Luka,,11.13,VT11,https://drive.google.com/uc?id=1430GsOknNFFWpLIZ6nLhB8i7qSB8A3Pb,"Banja Luka 78000, Bosnie-Herzégovine",44.77218110,17.19100000,Bosnia and Herzegovina,
Srebrenica Makerspace,Srebrenica,,11.15,VT11,,"Trg Mihajla Bjelakovića bb, Srebrenica 75430, Bosnie-Herzégovine",44.10397620,19.29972180,Bosnia and Herzegovina,
Tuzla Makerspace ,Tuzla,,11.14,VT11,https://drive.google.com/uc?id=1DaiHNxE4JvnHB-8rPN0JAEvSP80r6eaF,"Bosne Srebrene, Tuzla 75000, Bosnie-Herzégovine",44.53630760,18.66095670,Bosnia and Herzegovina,